CCSDS_OMM_VERS = 2.0
CREATION_DATE  = 
ORIGINATOR     = 

OBJECT_NAME    = SL-16 R/B
OBJECT_ID      = 1993-016B
CENTER_NAME    = EARTH
REF_FRAME      = TEME
TIME_SYSTEM    = UTC
MEAN_ELEMENT_THEORY = SGP/SGP4

EPOCH          = 2026-01-08T15:12:07.659072
MEAN_MOTION    = 14.15295836
ECCENTRICITY   = .00083304
INCLINATION    = 71.0089
RA_OF_ASC_NODE = 341.3179
ARG_OF_PERICENTER = 44.1613
MEAN_ANOMALY   = 316.0174

EPHEMERIS_TYPE = 0
CLASSIFICATION_TYPE = U
NORAD_CAT_ID   = 22566
ELEMENT_SET_NO = 999
REV_AT_EPOCH   = 69367
BSTAR          = -.69813901E-4
MEAN_MOTION_DOT = -.184E-5
MEAN_MOTION_DDOT = 0

CCSDS_OMM_VERS = 2.0
CREATION_DATE  = 
ORIGINATOR     = 

OBJECT_NAME    = COSMOS 2242
OBJECT_ID      = 1993-024A
CENTER_NAME    = EARTH
REF_FRAME      = TEME
TIME_SYSTEM    = UTC
MEAN_ELEMENT_THEORY = SGP/SGP4

EPOCH          = 2026-01-09T02:57:14.202720
MEAN_MOTION    = 14.96250086
ECCENTRICITY   = .0017383
INCLINATION    = 82.5208
RA_OF_ASC_NODE = 323.6699
ARG_OF_PERICENTER = 140.5140
MEAN_ANOMALY   = 219.7352

EPHEMERIS_TYPE = 0
CLASSIFICATION_TYPE = U
NORAD_CAT_ID   = 22626
ELEMENT_SET_NO = 999
REV_AT_EPOCH   = 77148
BSTAR          = .1734E-3
MEAN_MOTION_DOT = .1988E-4
MEAN_MOTION_DDOT = 0

CCSDS_OMM_VERS = 2.0
CREATION_DATE  = 
ORIGINATOR     = 

OBJECT_NAME    = SL-16 R/B
OBJECT_ID      = 1993-059B
CENTER_NAME    = EARTH
REF_FRAME      = TEME
TIME_SYSTEM    = UTC
MEAN_ELEMENT_THEORY = SGP/SGP4

EPOCH          = 2026-01-09T01:08:07.728288
MEAN_MOTION    = 14.17218754
ECCENTRICITY   = .0019242
INCLINATION    = 70.9903
RA_OF_ASC_NODE = 136.9026
ARG_OF_PERICENTER = 297.4396
MEAN_ANOMALY   = 62.4770

EPHEMERIS_TYPE = 0
CLASSIFICATION_TYPE = U
NORAD_CAT_ID   = 22803
ELEMENT_SET_NO = 999
REV_AT_EPOCH   = 67108
BSTAR          = .18734E-4
MEAN_MOTION_DOT = -.1E-6
MEAN_MOTION_DDOT = 0

CCSDS_OMM_VERS = 2.0
CREATION_DATE  = 
ORIGINATOR     = 

OBJECT_NAME    = ARIANE 40 R/B
OBJECT_ID      = 1993-061H
CENTER_NAME    = EARTH
REF_FRAME      = TEME
TIME_SYSTEM    = UTC
MEAN_ELEMENT_THEORY = SGP/SGP4

EPOCH          = 2026-01-08T15:26:49.607808
MEAN_MOTION    = 14.32822712
ECCENTRICITY   = .00118162
INCLINATION    = 98.5033
RA_OF_ASC_NODE = 78.6791
ARG_OF_PERICENTER = 101.7397
MEAN_ANOMALY   = 258.5113

EPHEMERIS_TYPE = 0
CLASSIFICATION_TYPE = U
NORAD_CAT_ID   = 22830
ELEMENT_SET_NO = 999
REV_AT_EPOCH   = 68550
BSTAR          = .13366655E-3
MEAN_MOTION_DOT = .322E-5
MEAN_MOTION_DDOT = 0

CCSDS_OMM_VERS = 2.0
CREATION_DATE  = 
ORIGINATOR     = 

OBJECT_NAME    = COSMOS 2278
OBJECT_ID      = 1994-023A
CENTER_NAME    = EARTH
REF_FRAME      = TEME
TIME_SYSTEM    = UTC
MEAN_ELEMENT_THEORY = SGP/SGP4

EPOCH          = 2026-01-08T23:27:11.354400
MEAN_MOTION    = 14.14360160
ECCENTRICITY   = .0007066
INCLINATION    = 71.0550
RA_OF_ASC_NODE = 300.0252
ARG_OF_PERICENTER = 129.3356
MEAN_ANOMALY   = 230.8394

EPHEMERIS_TYPE = 0
CLASSIFICATION_TYPE = U
NORAD_CAT_ID   = 23087
ELEMENT_SET_NO = 999
REV_AT_EPOCH   = 63636
BSTAR          = .22578E-3
MEAN_MOTION_DOT = .385E-5
MEAN_MOTION_DDOT = 0

CCSDS_OMM_VERS = 2.0
CREATION_DATE  = 
ORIGINATOR     = 

OBJECT_NAME    = SL-16 R/B
OBJECT_ID      = 1994-023B
CENTER_NAME    = EARTH
REF_FRAME      = TEME
TIME_SYSTEM    = UTC
MEAN_ELEMENT_THEORY = SGP/SGP4

EPOCH          = 2026-01-08T21:49:32.972160
MEAN_MOTION    = 14.15002098
ECCENTRICITY   = .0002869
INCLINATION    = 70.9982
RA_OF_ASC_NODE = 196.4291
ARG_OF_PERICENTER = 348.6749
MEAN_ANOMALY   = 11.4308

EPHEMERIS_TYPE = 0
CLASSIFICATION_TYPE = U
NORAD_CAT_ID   = 23088
ELEMENT_SET_NO = 999
REV_AT_EPOCH   = 63763
BSTAR          = .19093E-3
MEAN_MOTION_DOT = .322E-5
MEAN_MOTION_DDOT = 0

CCSDS_OMM_VERS = 2.0
CREATION_DATE  = 
ORIGINATOR     = 

OBJECT_NAME    = SL-16 R/B
OBJECT_ID      = 1994-074B
CENTER_NAME    = EARTH
REF_FRAME      = TEME
TIME_SYSTEM    = UTC
MEAN_ELEMENT_THEORY = SGP/SGP4

EPOCH          = 2026-01-09T00:01:54.443712
MEAN_MOTION    = 14.79327150
ECCENTRICITY   = .0007848
INCLINATION    = 97.7175
RA_OF_ASC_NODE = 42.2187
ARG_OF_PERICENTER = 62.0074
MEAN_ANOMALY   = 357.4351

EPHEMERIS_TYPE = 0
CLASSIFICATION_TYPE = U
NORAD_CAT_ID   = 23343
ELEMENT_SET_NO = 999
REV_AT_EPOCH   = 67842
BSTAR          = .67932E-4
MEAN_MOTION_DOT = .456E-5
MEAN_MOTION_DDOT = 0

CCSDS_OMM_VERS = 2.0
CREATION_DATE  = 
ORIGINATOR     = 

OBJECT_NAME    = SL-16 R/B
OBJECT_ID      = 1994-077B
CENTER_NAME    = EARTH
REF_FRAME      = TEME
TIME_SYSTEM    = UTC
MEAN_ELEMENT_THEORY = SGP/SGP4

EPOCH          = 2026-01-08T23:38:24.808704
MEAN_MOTION    = 14.15551386
ECCENTRICITY   = .0004856
INCLINATION    = 70.9829
RA_OF_ASC_NODE = 118.0979
ARG_OF_PERICENTER = 261.9500
MEAN_ANOMALY   = 98.1072

EPHEMERIS_TYPE = 0
CLASSIFICATION_TYPE = U
NORAD_CAT_ID   = 23405
ELEMENT_SET_NO = 999
REV_AT_EPOCH   = 60778
BSTAR          = .12862E-3
MEAN_MOTION_DOT = .204E-5
MEAN_MOTION_DDOT = 0

CCSDS_OMM_VERS = 2.0
CREATION_DATE  = 
ORIGINATOR     = 

OBJECT_NAME    = ARIANE 40+ R/B
OBJECT_ID      = 1995-021B
CENTER_NAME    = EARTH
REF_FRAME      = TEME
TIME_SYSTEM    = UTC
MEAN_ELEMENT_THEORY = SGP/SGP4

EPOCH          = 2026-01-09T04:30:52.839648
MEAN_MOTION    = 14.39720644
ECCENTRICITY   = .0006014
INCLINATION    = 98.4612
RA_OF_ASC_NODE = 81.4413
ARG_OF_PERICENTER = 327.7710
MEAN_ANOMALY   = 90.9259

EPHEMERIS_TYPE = 0
CLASSIFICATION_TYPE = U
NORAD_CAT_ID   = 23561
ELEMENT_SET_NO = 999
REV_AT_EPOCH   = 61068
BSTAR          = .10704E-3
MEAN_MOTION_DOT = .292E-5
MEAN_MOTION_DDOT = 0

CCSDS_OMM_VERS = 2.0
CREATION_DATE  = 
ORIGINATOR     = 

OBJECT_NAME    = SL-16 R/B
OBJECT_ID      = 1995-058B
CENTER_NAME    = EARTH
REF_FRAME      = TEME
TIME_SYSTEM    = UTC
MEAN_ELEMENT_THEORY = SGP/SGP4

EPOCH          = 2026-01-08T23:44:14.121312
MEAN_MOTION    = 14.15488175
ECCENTRICITY   = .0013939
INCLINATION    = 71.0230
RA_OF_ASC_NODE = 305.5944
ARG_OF_PERICENTER = 218.7072
MEAN_ANOMALY   = 141.3053

EPHEMERIS_TYPE = 0
CLASSIFICATION_TYPE = U
NORAD_CAT_ID   = 23705
ELEMENT_SET_NO = 999
REV_AT_EPOCH   = 55940
BSTAR          = .15529E-3
MEAN_MOTION_DOT = .256E-5
MEAN_MOTION_DDOT = 0

CCSDS_OMM_VERS = 2.0
CREATION_DATE  = 
ORIGINATOR     = 

OBJECT_NAME    = SL-16 R/B
OBJECT_ID      = 1996-051B
CENTER_NAME    = EARTH
REF_FRAME      = TEME
TIME_SYSTEM    = UTC
MEAN_ELEMENT_THEORY = SGP/SGP4

EPOCH          = 2026-01-09T04:19:16.961952
MEAN_MOTION    = 14.12400108
ECCENTRICITY   = .0019221
INCLINATION    = 70.7599
RA_OF_ASC_NODE = 301.2009
ARG_OF_PERICENTER = 227.6521
MEAN_ANOMALY   = 132.2972

EPHEMERIS_TYPE = 0
CLASSIFICATION_TYPE = U
NORAD_CAT_ID   = 24298
ELEMENT_SET_NO = 999
REV_AT_EPOCH   = 51324
BSTAR          = .37202E-4
MEAN_MOTION_DOT = .19E-6
MEAN_MOTION_DDOT = 0

CCSDS_OMM_VERS = 2.0
CREATION_DATE  = 
ORIGINATOR     = 

OBJECT_NAME    = ORBVIEW 2 (SEASTAR)
OBJECT_ID      = 1997-037A
CENTER_NAME    = EARTH
REF_FRAME      = TEME
TIME_SYSTEM    = UTC
MEAN_ELEMENT_THEORY = SGP/SGP4

EPOCH          = 2026-01-09T04:04:54.116256
MEAN_MOTION    = 14.35441637
ECCENTRICITY   = .0001554
INCLINATION    = 98.8475
RA_OF_ASC_NODE = 171.9386
ARG_OF_PERICENTER = 214.1338
MEAN_ANOMALY   = 145.9747

EPHEMERIS_TYPE = 0
CLASSIFICATION_TYPE = U
NORAD_CAT_ID   = 24883
ELEMENT_SET_NO = 999
REV_AT_EPOCH   = 49993
BSTAR          = .11803E-3
MEAN_MOTION_DOT = .292E-5
MEAN_MOTION_DDOT = 0

