SL-16 R/B               
1 22566U 93016B   26008.63342198 -.00000184  00000+0 -69814-4 0  9998
2 22566  71.0089 341.3179 0008330  44.1613 316.0174 14.15295836693676
COSMOS 2242             
1 22626U 93024A   26009.12308105  .00001988  00000+0  17340-3 0  9996
2 22626  82.5208 323.6699 0017383 140.5140 219.7352 14.96250086771487
SL-16 R/B               
1 22803U 93059B   26009.04731167 -.00000010  00000+0  18734-4 0  9995
2 22803  70.9903 136.9026 0019242 297.4396  62.4770 14.17218754671088
ARIANE 40 R/B           
1 22830U 93061H   26008.64362972  .00000322  00000+0  13367-3 0  9998
2 22830  98.5033  78.6791 0011816 101.7397 258.5113 14.32822712685509
COSMOS 2278             
1 23087U 94023A   26008.97721475  .00000385  00000+0  22578-3 0  9998
2 23087  71.0550 300.0252 0007066 129.3356 230.8394 14.14360160636369
SL-16 R/B               
1 23088U 94023B   26008.90940940  .00000322  00000+0  19093-3 0  9991
2 23088  70.9982 196.4291 0002869 348.6749  11.4308 14.15002098637638
SL-16 R/B               
1 23343U 94074B   26009.00132458  .00000456  00000+0  67932-4 0  9994
2 23343  97.7175  42.2187 0007848  62.0074 357.4351 14.79327150678427
SL-16 R/B               
1 23405U 94077B   26008.98500936  .00000204  00000+0  12862-3 0  9994
2 23405  70.9829 118.0979 0004856 261.9500  98.1072 14.15551386607786
ARIANE 40+ R/B          
1 23561U 95021B   26009.18811157  .00000292  00000+0  10704-3 0  9990
2 23561  98.4612  81.4413 0006014 327.7710  90.9259 14.39720644610683
SL-16 R/B               
1 23705U 95058B   26008.98905233  .00000256  00000+0  15529-3 0  9996
2 23705  71.0230 305.5944 0013939 218.7072 141.3053 14.15488175559408
SL-16 R/B               
1 24298U 96051B   26009.18005743  .00000019  00000+0  37202-4 0  9998
2 24298  70.7599 301.2009 0019221 227.6521 132.2972 14.12400108513241
ORBVIEW 2 (SEASTAR)     
1 24883U 97037A   26009.17007079  .00000292  00000+0  11803-3 0  9997
2 24883  98.8475 171.9386 0001554 214.1338 145.9747 14.35441637499939
